0 DELTA 1 DEB
1 10198U 77065AB  13284.17899810  .00004213  00000-0  35195-2 0  4726
2 10198 029.5672 278.4085 0658631 353.5192 084.1516 13.16233450716303
0 DELTA 1 DEB
1 10198U 77065AB  13286.39529128  .00003626  00000-0  30202-2 0  4736
2 10198 029.5663 267.7836 0658963 010.5171 145.9833 13.16249906716595
0 DELTA 1 DEB
1 10198U 77065AB  13289.19139828  .00005242  00000-0  43807-2 0  4743
2 10198 029.5659 254.3799 0659256 031.9566 075.4576 13.16275561716969
0 DELTA 1 DEB
1 10198U 77065AB  13291.32729949  .00004704  00000-0  39209-2 0  4754
2 10198 029.5658 244.1406 0659617 048.3259 116.7055 13.16295892717244
0 DELTA 1 DEB
1 10198U 77065AB  13293.88080606  .00004993  00000-0  41561-2 0  4762
2 10198 029.5652 231.8988 0659978 067.8921 337.0477 13.16320043717588
0 DELTA 1 DEB
1 10198U 77065AB  13296.17496903  .00005458  00000-0  45379-2 0  4777
2 10198 029.5647 220.9014 0660306 085.4528 048.6424 13.16342950717888
